STARLINK-36439          
1 67624U 26020H   26054.79052737  .00289553  00000+0  17166-2 0  9996
2 67624  42.9986 226.5385 0002558 291.6620  68.3977 15.76423698  3893
STARLINK-36438          
1 67625U 26020J   26054.79709399  .00377942  00000+0  22103-2 0  9997
2 67625  42.9975 226.5916 0002141 300.6794  59.3865 15.76485260  3892
STARLINK-36436          
1 67626U 26020K   26054.83335647  .00006720  00000+0  44262-4 0  9999
2 67626  42.9991 225.9708 0001546 278.0520  89.7799 15.76347512  5168
STARLINK-36502          
1 67627U 26020L   26054.83335647 -.00019061  00000+0 -11432-3 0  9996
2 67627  42.9992 225.8153 0001641 263.5017 166.5390 15.76366487  5162
STARLINK-36532          
1 67628U 26020M   26054.81885337  .00223130  00000+0  13353-2 0  9996
2 67628  42.9978 225.8684 0001911 287.1412  72.9249 15.76402423  3901
STARLINK-36367          
1 67629U 26020N   26054.84293608  .00130569  00000+0  79154-3 0  9999
2 67629  42.9980 226.0644 0001629 258.3517 101.7170 15.76393797  3903
STARLINK-36416          
1 67630U 26020P   26054.79491127  .00445569  00000+0  25888-2 0  9994
2 67630  42.9978 226.5740 0001753 320.5029  39.5712 15.76445959  3898
STARLINK-36527          
1 67631U 26020Q   26053.86391817  .00411780  00000+0  18649-2 0  9992
2 67631  42.9984 231.6086 0003436 320.3353  39.7267 15.82033993  3754
STARLINK-36633          
1 67632U 26020R   26054.82760926  .00159655  00000+0  96359-3 0  9996
2 67632  42.9991 225.9411 0001529 269.2832  90.7863 15.76400661  3904
STARLINK-36637          
1 67633U 26020S   26054.79271951  .00296786  00000+0  17587-2 0  9990
2 67633  42.9974 226.5567 0001853 305.4907  54.5790 15.76413663  3892
STARLINK-36617          
1 67634U 26020T   26054.81446920  .00195060  00000+0  11713-2 0  9992
2 67634  42.9984 225.8329 0001584 245.4121 114.6584 15.76408187  3900
STARLINK-36627          
1 67635U 26020U   26054.83335647  .00023247  00000+0  14551-3 0  9999
2 67635  42.9986 226.2184 0001664 260.0201   8.2905 15.76341365  5167
