CCSDS_OMM_VERS = 2.0
CREATION_DATE  = 
ORIGINATOR     = 

OBJECT_NAME    = STARLINK-36439
OBJECT_ID      = 2026-020H
CENTER_NAME    = EARTH
REF_FRAME      = TEME
TIME_SYSTEM    = UTC
MEAN_ELEMENT_THEORY = SGP/SGP4

EPOCH          = 2026-02-23T18:58:21.564768
MEAN_MOTION    = 15.76423698
ECCENTRICITY   = .0002558
INCLINATION    = 42.9986
RA_OF_ASC_NODE = 226.5385
ARG_OF_PERICENTER = 291.6620
MEAN_ANOMALY   = 68.3977

EPHEMERIS_TYPE = 0
CLASSIFICATION_TYPE = U
NORAD_CAT_ID   = 67624
ELEMENT_SET_NO = 999
REV_AT_EPOCH   = 389
BSTAR          = .17166E-2
MEAN_MOTION_DOT = .289553E-2
MEAN_MOTION_DDOT = 0

CCSDS_OMM_VERS = 2.0
CREATION_DATE  = 
ORIGINATOR     = 

OBJECT_NAME    = STARLINK-36438
OBJECT_ID      = 2026-020J
CENTER_NAME    = EARTH
REF_FRAME      = TEME
TIME_SYSTEM    = UTC
MEAN_ELEMENT_THEORY = SGP/SGP4

EPOCH          = 2026-02-23T19:07:48.920736
MEAN_MOTION    = 15.76485260
ECCENTRICITY   = .0002141
INCLINATION    = 42.9975
RA_OF_ASC_NODE = 226.5916
ARG_OF_PERICENTER = 300.6794
MEAN_ANOMALY   = 59.3865

EPHEMERIS_TYPE = 0
CLASSIFICATION_TYPE = U
NORAD_CAT_ID   = 67625
ELEMENT_SET_NO = 999
REV_AT_EPOCH   = 389
BSTAR          = .22103E-2
MEAN_MOTION_DOT = .377942E-2
MEAN_MOTION_DDOT = 0

CCSDS_OMM_VERS = 2.0
CREATION_DATE  = 
ORIGINATOR     = 

OBJECT_NAME    = STARLINK-36436
OBJECT_ID      = 2026-020K
CENTER_NAME    = EARTH
REF_FRAME      = TEME
TIME_SYSTEM    = UTC
MEAN_ELEMENT_THEORY = SGP/SGP4

EPOCH          = 2026-02-23T20:00:01.999008
MEAN_MOTION    = 15.76347512
ECCENTRICITY   = .0001546
INCLINATION    = 42.9991
RA_OF_ASC_NODE = 225.9708
ARG_OF_PERICENTER = 278.0520
MEAN_ANOMALY   = 89.7799

EPHEMERIS_TYPE = 0
CLASSIFICATION_TYPE = U
NORAD_CAT_ID   = 67626
ELEMENT_SET_NO = 999
REV_AT_EPOCH   = 516
BSTAR          = .44262E-4
MEAN_MOTION_DOT = .672E-4
MEAN_MOTION_DDOT = 0

CCSDS_OMM_VERS = 2.0
CREATION_DATE  = 
ORIGINATOR     = 

OBJECT_NAME    = STARLINK-36502
OBJECT_ID      = 2026-020L
CENTER_NAME    = EARTH
REF_FRAME      = TEME
TIME_SYSTEM    = UTC
MEAN_ELEMENT_THEORY = SGP/SGP4

EPOCH          = 2026-02-23T20:00:01.999008
MEAN_MOTION    = 15.76366487
ECCENTRICITY   = .0001641
INCLINATION    = 42.9992
RA_OF_ASC_NODE = 225.8153
ARG_OF_PERICENTER = 263.5017
MEAN_ANOMALY   = 166.5390

EPHEMERIS_TYPE = 0
CLASSIFICATION_TYPE = U
NORAD_CAT_ID   = 67627
ELEMENT_SET_NO = 999
REV_AT_EPOCH   = 516
BSTAR          = -.11432E-3
MEAN_MOTION_DOT = -.19061E-3
MEAN_MOTION_DDOT = 0

CCSDS_OMM_VERS = 2.0
CREATION_DATE  = 
ORIGINATOR     = 

OBJECT_NAME    = STARLINK-36532
OBJECT_ID      = 2026-020M
CENTER_NAME    = EARTH
REF_FRAME      = TEME
TIME_SYSTEM    = UTC
MEAN_ELEMENT_THEORY = SGP/SGP4

EPOCH          = 2026-02-23T19:39:08.931168
MEAN_MOTION    = 15.76402423
ECCENTRICITY   = .0001911
INCLINATION    = 42.9978
RA_OF_ASC_NODE = 225.8684
ARG_OF_PERICENTER = 287.1412
MEAN_ANOMALY   = 72.9249

EPHEMERIS_TYPE = 0
CLASSIFICATION_TYPE = U
NORAD_CAT_ID   = 67628
ELEMENT_SET_NO = 999
REV_AT_EPOCH   = 390
BSTAR          = .13353E-2
MEAN_MOTION_DOT = .22313E-2
MEAN_MOTION_DDOT = 0

CCSDS_OMM_VERS = 2.0
CREATION_DATE  = 
ORIGINATOR     = 

OBJECT_NAME    = STARLINK-36367
OBJECT_ID      = 2026-020N
CENTER_NAME    = EARTH
REF_FRAME      = TEME
TIME_SYSTEM    = UTC
MEAN_ELEMENT_THEORY = SGP/SGP4

EPOCH          = 2026-02-23T20:13:49.677312
MEAN_MOTION    = 15.76393797
ECCENTRICITY   = .0001629
INCLINATION    = 42.9980
RA_OF_ASC_NODE = 226.0644
ARG_OF_PERICENTER = 258.3517
MEAN_ANOMALY   = 101.7170

EPHEMERIS_TYPE = 0
CLASSIFICATION_TYPE = U
NORAD_CAT_ID   = 67629
ELEMENT_SET_NO = 999
REV_AT_EPOCH   = 390
BSTAR          = .79154E-3
MEAN_MOTION_DOT = .130569E-2
MEAN_MOTION_DDOT = 0

CCSDS_OMM_VERS = 2.0
CREATION_DATE  = 
ORIGINATOR     = 

OBJECT_NAME    = STARLINK-36416
OBJECT_ID      = 2026-020P
CENTER_NAME    = EARTH
REF_FRAME      = TEME
TIME_SYSTEM    = UTC
MEAN_ELEMENT_THEORY = SGP/SGP4

EPOCH          = 2026-02-23T19:04:40.333728
MEAN_MOTION    = 15.76445959
ECCENTRICITY   = .0001753
INCLINATION    = 42.9978
RA_OF_ASC_NODE = 226.5740
ARG_OF_PERICENTER = 320.5029
MEAN_ANOMALY   = 39.5712

EPHEMERIS_TYPE = 0
CLASSIFICATION_TYPE = U
NORAD_CAT_ID   = 67630
ELEMENT_SET_NO = 999
REV_AT_EPOCH   = 389
BSTAR          = .25888E-2
MEAN_MOTION_DOT = .445569E-2
MEAN_MOTION_DDOT = 0

CCSDS_OMM_VERS = 2.0
CREATION_DATE  = 
ORIGINATOR     = 

OBJECT_NAME    = STARLINK-36527
OBJECT_ID      = 2026-020Q
CENTER_NAME    = EARTH
REF_FRAME      = TEME
TIME_SYSTEM    = UTC
MEAN_ELEMENT_THEORY = SGP/SGP4

EPOCH          = 2026-02-22T20:44:02.529888
MEAN_MOTION    = 15.82033993
ECCENTRICITY   = .0003436
INCLINATION    = 42.9984
RA_OF_ASC_NODE = 231.6086
ARG_OF_PERICENTER = 320.3353
MEAN_ANOMALY   = 39.7267

EPHEMERIS_TYPE = 0
CLASSIFICATION_TYPE = U
NORAD_CAT_ID   = 67631
ELEMENT_SET_NO = 999
REV_AT_EPOCH   = 375
BSTAR          = .18649E-2
MEAN_MOTION_DOT = .41178E-2
MEAN_MOTION_DDOT = 0

CCSDS_OMM_VERS = 2.0
CREATION_DATE  = 
ORIGINATOR     = 

OBJECT_NAME    = STARLINK-36633
OBJECT_ID      = 2026-020R
CENTER_NAME    = EARTH
REF_FRAME      = TEME
TIME_SYSTEM    = UTC
MEAN_ELEMENT_THEORY = SGP/SGP4

EPOCH          = 2026-02-23T19:51:45.440064
MEAN_MOTION    = 15.76400661
ECCENTRICITY   = .0001529
INCLINATION    = 42.9991
RA_OF_ASC_NODE = 225.9411
ARG_OF_PERICENTER = 269.2832
MEAN_ANOMALY   = 90.7863

EPHEMERIS_TYPE = 0
CLASSIFICATION_TYPE = U
NORAD_CAT_ID   = 67632
ELEMENT_SET_NO = 999
REV_AT_EPOCH   = 390
BSTAR          = .96359E-3
MEAN_MOTION_DOT = .159655E-2
MEAN_MOTION_DDOT = 0

CCSDS_OMM_VERS = 2.0
CREATION_DATE  = 
ORIGINATOR     = 

OBJECT_NAME    = STARLINK-36637
OBJECT_ID      = 2026-020S
CENTER_NAME    = EARTH
REF_FRAME      = TEME
TIME_SYSTEM    = UTC
MEAN_ELEMENT_THEORY = SGP/SGP4

EPOCH          = 2026-02-23T19:01:30.965664
MEAN_MOTION    = 15.76413663
ECCENTRICITY   = .0001853
INCLINATION    = 42.9974
RA_OF_ASC_NODE = 226.5567
ARG_OF_PERICENTER = 305.4907
MEAN_ANOMALY   = 54.5790

EPHEMERIS_TYPE = 0
CLASSIFICATION_TYPE = U
NORAD_CAT_ID   = 67633
ELEMENT_SET_NO = 999
REV_AT_EPOCH   = 389
BSTAR          = .17587E-2
MEAN_MOTION_DOT = .296786E-2
MEAN_MOTION_DDOT = 0

CCSDS_OMM_VERS = 2.0
CREATION_DATE  = 
ORIGINATOR     = 

OBJECT_NAME    = STARLINK-36617
OBJECT_ID      = 2026-020T
CENTER_NAME    = EARTH
REF_FRAME      = TEME
TIME_SYSTEM    = UTC
MEAN_ELEMENT_THEORY = SGP/SGP4

EPOCH          = 2026-02-23T19:32:50.138880
MEAN_MOTION    = 15.76408187
ECCENTRICITY   = .0001584
INCLINATION    = 42.9984
RA_OF_ASC_NODE = 225.8329
ARG_OF_PERICENTER = 245.4121
MEAN_ANOMALY   = 114.6584

EPHEMERIS_TYPE = 0
CLASSIFICATION_TYPE = U
NORAD_CAT_ID   = 67634
ELEMENT_SET_NO = 999
REV_AT_EPOCH   = 390
BSTAR          = .11713E-2
MEAN_MOTION_DOT = .19506E-2
MEAN_MOTION_DDOT = 0

CCSDS_OMM_VERS = 2.0
CREATION_DATE  = 
ORIGINATOR     = 

OBJECT_NAME    = STARLINK-36627
OBJECT_ID      = 2026-020U
CENTER_NAME    = EARTH
REF_FRAME      = TEME
TIME_SYSTEM    = UTC
MEAN_ELEMENT_THEORY = SGP/SGP4

EPOCH          = 2026-02-23T20:00:01.999008
MEAN_MOTION    = 15.76341365
ECCENTRICITY   = .0001664
INCLINATION    = 42.9986
RA_OF_ASC_NODE = 226.2184
ARG_OF_PERICENTER = 260.0201
MEAN_ANOMALY   = 8.2905

EPHEMERIS_TYPE = 0
CLASSIFICATION_TYPE = U
NORAD_CAT_ID   = 67635
ELEMENT_SET_NO = 999
REV_AT_EPOCH   = 516
BSTAR          = .14551E-3
MEAN_MOTION_DOT = .23247E-3
MEAN_MOTION_DDOT = 0

